NORAD_CAT_ID,OBJECT_NAME,OBJECT_TYPE,EPOCH,MEAN_MOTION,ECCENTRICITY,INCLINATION,RA_OF_ASC_NODE,ARG_OF_PERICENTER,MEAN_ANOMALY,BSTAR,MEAN_MOTION_DOT,MEAN_MOTION_DDOT,TLE_LINE0,TLE_LINE1,TLE_LINE2,SEMIMAJOR_AXIS,PERIOD,APOGEE,PERIGEE,DECAYED
56804.0,STARLINK-6069,PAYLOAD,2024-04-11 12:06:25,14.98330892,0.0003124,69.9984,282.2343,270.1055,89.9746,5.4425e-05,5.56e-06,0.0,0 STARLINK-6069,1 56804U 23078AP  24102.50446637  .00000556  00000-0  54425-4 0  9997,2 56804  69.9984 282.2343 0003124 270.1055  89.9746 14.98330892 49007,6950.19,96.107,574.226,569.884,0.0
56804.0,STARLINK-6069,PAYLOAD,2024-04-11 13:42:33,14.98330939,0.0003129,69.9985,282.0659,270.0476,90.0324,5.4615e-05,5.59e-06,0.0,0 STARLINK-6069,1 56804U 23078AP  24102.57122626  .00000559  00000-0  54615-4 0  9997,2 56804  69.9985 282.0659 0003129 270.0476  90.0324 14.98330939 49420,6950.19,96.107,574.23,569.88,0.0
56804.0,STARLINK-6069,PAYLOAD,2024-04-11 21:43:14,14.98334116,0.0003143,69.9987,281.2243,270.3221,89.7578,5.9528e-05,6.17e-06,0.0,0 STARLINK-6069,1 56804U 23078AP  24102.90502366  .00000617  00000-0  59528-4 0  9990,2 56804  69.9987 281.2243 0003143 270.3221  89.7578 14.98334116 49471,6950.18,96.107,574.23,569.861,0.0
56804.0,STARLINK-6069,PAYLOAD,2024-04-12 12:08:27,14.98327485,0.0003125,69.9986,279.7094,270.2086,89.8715,2.4687e-05,2.02e-06,0.0,0 STARLINK-6069,1 56804U 23078AP  24103.50586829  .00000202  00000-0  24687-4 0  9991,2 56804  69.9986 279.7094 0003125 270.2086  89.8715 14.98327485 49154,6950.201,96.107,574.238,569.894,0.0
56804.0,STARLINK-6069,PAYLOAD,2024-04-12 13:44:35,14.98327472,0.0003126,69.9986,279.541,270.1929,89.8872,2.3633e-05,1.89e-06,0.0,0 STARLINK-6069,1 56804U 23078AP  24103.57262836  .00000189  00000-0  23633-4 0  9991,2 56804  69.9986 279.5410 0003126 270.1929  89.8872 14.98327472 49576,6950.201,96.107,574.238,569.893,0.0
56804.0,STARLINK-6069,PAYLOAD,2024-04-12 21:45:15,14.98331607,0.0003137,69.9987,278.6994,270.2717,89.8082,4.193e-05,4.07e-06,0.0,0 STARLINK-6069,1 56804U 23078AP  24103.90642524  .00000407  00000-0  41930-4 0  9997,2 56804  69.9987 278.6994 0003137 270.2717  89.8082 14.98331607 49626,6950.188,96.107,574.233,569.873,0.0
56804.0,STARLINK-6069,PAYLOAD,2024-04-13 12:10:27,14.98331154,0.0003023,69.999,277.1841,270.3813,89.6999,-5.5577e-05,-7.56e-06,0.0,0 STARLINK-6069,1 56804U 23078AP  24104.50726808 -.00000756  00000-0 -55577-4 0  9993,2 56804  69.9990 277.1841 0003023 270.3813  89.6999 14.98331154 49304,6950.189,96.107,574.155,569.953,0.0
56804.0,STARLINK-6069,PAYLOAD,2024-04-13 13:46:36,14.98331217,0.0003024,69.999,277.0158,270.3663,89.715,-5.3804e-05,-7.35e-06,0.0,0 STARLINK-6069,1 56804U 23078AP  24104.57402789 -.00000735  00000-0 -53804-4 0  9997,2 56804  69.9990 277.0158 0003024 270.3663  89.7150 14.98331217 49724,6950.189,96.107,574.156,569.952,0.0
56804.0,STARLINK-6069,PAYLOAD,2024-04-13 21:47:16,14.9833255,0.0002953,69.9993,276.175,269.2862,90.7959,-2.2156e-05,-3.57e-06,0.0,0 STARLINK-6069,1 56804U 23078AP  24104.90782573 -.00000357  00000-0 -22156-4 0  9992,2 56804  69.9993 276.1750 0002953 269.2862  90.7959 14.98332550 49778,6950.185,96.107,574.102,569.998,0.0
56804.0,STARLINK-6069,PAYLOAD,2024-04-14 12:12:28,14.98329918,0.0002849,69.9995,274.6597,269.4503,90.633,3.8168e-06,-4.7e-07,0.0,0 STARLINK-6069,1 56804U 23078AP  24105.50866625 -.00000047  00000-0  38168-5 0  9996,2 56804  69.9995 274.6597 0002849 269.4503  90.6330 14.98329918 49451,6950.193,96.107,574.038,570.078,0.0
56804.0,STARLINK-6069,PAYLOAD,2024-04-14 21:49:17,14.98331177,0.0002828,69.9996,273.6497,268.0155,92.068,1.9172e-05,1.36e-06,0.0,0 STARLINK-6069,1 56804U 23078AP  24105.90922476  .00000136  00000-0  19172-4 0  9998,2 56804  69.9996 273.6497 0002828 268.0155  92.0680 14.98331177 49921,6950.189,96.107,574.02,570.089,0.0
56804.0,STARLINK-6069,PAYLOAD,2024-04-15 12:14:29,14.98331613,0.0002836,69.9997,272.1348,266.0728,94.0107,2.8956e-05,2.53e-06,0.0,0 STARLINK-6069,1 56804U 23078AP  24106.51006317  .00000253  00000-0  28956-4 0  9993,2 56804  69.9997 272.1348 0002836 266.0728  94.0107 14.98331613 49600,6950.188,96.107,574.024,570.082,0.0
56804.0,STARLINK-6069,PAYLOAD,2024-04-15 13:50:37,14.98331297,0.0002848,69.9996,271.9665,265.5797,94.5037,2.3989e-05,1.93e-06,0.0,0 STARLINK-6069,1 56804U 23078AP  24106.57682336  .00000193  00000-0  23989-4 0  9994,2 56804  69.9996 271.9665 0002848 265.5797  94.5037 14.98331297 50024,6950.189,96.107,574.033,570.074,0.0
56804.0,STARLINK-6069,PAYLOAD,2024-04-15 20:15:09,14.98332198,0.0002839,69.9997,271.2932,265.9188,94.1646,3.2539e-05,2.95e-06,0.0,0 STARLINK-6069,1 56804U 23078AP  24106.84386220  .00000295  00000-0  32539-4 0  9991,2 56804  69.9997 271.2932 0002839 265.9188  94.1646 14.98332198 50060,6950.186,96.107,574.024,570.078,0.0
56804.0,STARLINK-6069,PAYLOAD,2024-04-16 12:16:30,14.98326821,0.0002862,69.9995,269.6097,270.1338,89.9493,-5.0045e-05,-6.9e-06,0.0,0 STARLINK-6069,1 56804U 23078AP  24107.51146743 -.00000690  00000-0 -50045-4 0  9993,2 56804  69.9995 269.6097 0002862 270.1338  89.9493 14.98326821 49754,6950.203,96.107,574.057,570.079,0.0
56804.0,STARLINK-6069,PAYLOAD,2024-04-16 13:52:38,14.9832671,0.0002866,69.9995,269.4413,270.1345,89.9486,-5.0632e-05,-6.97e-06,0.0,0 STARLINK-6069,1 56804U 23078AP  24107.57822758 -.00000697  00000-0 -50632-4 0  9995,2 56804  69.9995 269.4413 0002866 270.1345  89.9486 14.98326710 50173,6950.203,96.107,574.06,570.076,0.0
56804.0,STARLINK-6069,PAYLOAD,2024-04-16 20:17:10,14.98334468,0.0002786,69.9994,268.7681,267.8328,92.2512,3.2667e-05,2.97e-06,0.0,0 STARLINK-6069,1 56804U 23078AP  24107.84526004  .00000297  00000-0  32667-4 0  9992,2 56804  69.9994 268.7681 0002786 267.8328  92.2512 14.98334468 49800,6950.179,96.107,573.98,570.108,0.0
56804.0,STARLINK-6069,PAYLOAD,2024-04-17 13:54:39,14.98329231,0.0002798,69.9996,266.9169,270.0118,90.072,-1.8653e-05,-3.16e-06,0.0,0 STARLINK-6069,1 56804U 23078AP  24108.57962377 -.00000316  00000-0 -18653-4 0  9993,2 56804  69.9996 266.9169 0002798 270.0118  90.0720 14.98329231 50327,6950.195,96.107,574.005,570.116,0.0
56804.0,STARLINK-6069,PAYLOAD,2024-04-17 20:19:11,14.98329283,0.0002628,69.9997,266.244,266.5785,93.5074,9.0908e-07,-8.2e-07,0.0,0 STARLINK-6069,1 56804U 23078AP  24108.84666327 -.00000082  00000-0  90908-6 0  9993,2 56804  69.9997 266.2440 0002628 266.5785  93.5074 14.98329283 49959,6950.195,96.107,573.887,570.234,0.0
56804.0,STARLINK-6069,PAYLOAD,2024-04-18 12:20:29,14.98352979,0.0003007,69.9994,264.5573,268.6625,91.4189,0.0002582,2.991e-05,0.0,0 STARLINK-6069,1 56804U 23078AP  24109.51423362  .00002991  00000-0  25820-3 0  9996,2 56804  69.9994 264.5573 0003007 268.6625  91.4189 14.98352979 50057,6950.122,96.106,574.077,569.897,0.0
56804.0,STARLINK-6069,PAYLOAD,2024-04-18 20:21:13,14.98312683,0.000269,70.0001,263.7204,262.764,97.3214,-0.00023071,-2.843e-05,0.0,0 STARLINK-6069,1 56804U 23078AP  24109.84807291 -.00002843  00000-0 -23071-3 0  9993,2 56804  70.0001 263.7204 0002690 262.7640  97.3214 14.98312683 50108,6950.246,96.108,573.981,570.242,0.0
56804.0,STARLINK-6069,PAYLOAD,2024-04-19 12:22:33,14.98320299,0.0003245,69.9989,262.0345,273.6221,86.4567,-0.00011862,-1.508e-05,0.0,0 STARLINK-6069,1 56804U 23078AP  24110.51566841 -.00001508  00000-0 -11862-3 0  9994,2 56804  69.9989 262.0345 0003245 273.6221  86.4567 14.98320299 50204,6950.223,96.108,574.343,569.833,0.0
56804.0,STARLINK-6069,PAYLOAD,2024-04-19 13:58:41,14.98320967,0.0003222,69.9989,261.8663,274.7748,85.3044,-0.00010839,-1.386e-05,0.0,0 STARLINK-6069,1 56804U 23078AP  24110.58242816 -.00001386  00000-0 -10839-3 0  9991,2 56804  69.9989 261.8663 0003222 274.7748  85.3044 14.98320967 50621,6950.221,96.108,574.325,569.846,0.0
56804.0,STARLINK-6069,PAYLOAD,2024-04-19 18:47:05,14.98325912,0.0002389,70.0005,261.3611,265.0172,95.0715,2.7926e-05,2.4e-06,0.0,0 STARLINK-6069,1 56804U 23078AP  24110.78270143  .00000240  00000-0  27926-4 0  9999,2 56804  70.0005 261.3611 0002389 265.0172  95.0715 14.98325912 50244,6950.206,96.107,573.731,570.41,0.0
56804.0,STARLINK-6069,PAYLOAD,2024-04-20 12:24:33,14.98347164,0.0002404,70.001,259.5104,256.5534,103.5357,-0.00022452,-2.772e-05,0.0,0 STARLINK-6069,1 56804U 23078AP  24111.51705116 -.00002772  00000-0 -22452-3 0  9996,2 56804  70.0010 259.5104 0002404 256.5534 103.5357 14.98347164 50353,6950.14,96.106,573.676,570.334,0.0
56804.0,STARLINK-6069,PAYLOAD,2024-04-20 14:00:41,14.98345788,0.0002478,70.0004,259.341,258.2205,101.8676,-0.00022019,-2.72e-05,0.0,0 STARLINK-6069,1 56804U 23078AP  24111.58381131 -.00002720  00000-0 -22019-3 0  9992,2 56804  70.0004 259.3410 0002478 258.2205 101.8676 14.98345788 50770,6950.144,96.106,573.731,570.287,0.0
56804.0,STARLINK-6069,PAYLOAD,2024-04-20 18:49:05,14.98346547,0.0002531,70.0003,258.8374,247.6887,112.4004,-0.00021923,-2.709e-05,0.0,0 STARLINK-6069,1 56804U 23078AP  24111.78408916 -.00002709  00000-0 -21923-3 0  9995,2 56804  70.0003 258.8374 0002531 247.6887 112.4004 14.98346547 50801,6950.142,96.106,573.766,570.248,0.0
56804.0,STARLINK-6069,PAYLOAD,2024-04-21 14:02:43,14.9832141,0.000247,70.0012,256.8178,249.8827,110.2067,-6.3155e-06,-1.68e-06,0.0,0 STARLINK-6069,1 56804U 23078AP  24112.58522399 -.00000168  00000-0 -63155-5 0  9998,2 56804  70.0012 256.8178 0002470 249.8827 110.2067 14.98321410 50921,6950.219,96.108,573.801,570.368,0.0
56804.0,STARLINK-6069,PAYLOAD,2024-04-21 18:51:07,14.98319662,0.0002468,70.0012,256.3131,250.2448,109.8445,9.771e-06,2.4e-07,0.0,0 STARLINK-6069,1 56804U 23078AP  24112.78550576  .00000024  00000-0  97710-5 0  9991,2 56804  70.0012 256.3131 0002468 250.2448 109.8445 14.98319662 50545,6950.225,96.108,573.805,570.375,0.0
56804.0,STARLINK-6069,PAYLOAD,2024-04-22 10:52:28,14.98325948,0.0002505,70.0013,254.6298,241.3671,118.7236,-3.94e-05,-5.63e-06,0.0,0 STARLINK-6069,1 56804U 23078AP  24113.45310435 -.00000563  00000-0 -39400-4 0  9995,2 56804  70.0013 254.6298 0002505 241.3671 118.7236 14.98325948 51050,6950.205,96.107,573.811,570.329,0.0
